[{"OBJECT_NAME":"SHIYAN-1 (SY-1)","OBJECT_ID":"2004-012A","EPOCH":"2026-03-09T17:40:34.066560","MEAN_MOTION":15.31043463,"ECCENTRICITY":0.00058726,"INCLINATION":97.8764,"RA_OF_ASC_NODE":140.5238,"ARG_OF_PERICENTER":23.6952,"MEAN_ANOMALY":336.4557,"EPHEMERIS_TYPE":0,"CLASSIFICATION_TYPE":"U","NORAD_CAT_ID":28220,"ELEMENT_SET_NO":999,"REV_AT_EPOCH":19586,"BSTAR":0.00054854449,"MEAN_MOTION_DOT":0.00016393,"MEAN_MOTION_DDOT":0},{"OBJECT_NAME":"STARLINK-31866","OBJECT_ID":"2024-084Q","EPOCH":"2026-03-09T22:03:58.531680","MEAN_MOTION":15.27567508,"ECCENTRICITY":0.00010335,"INCLINATION":42.9986,"RA_OF_ASC_NODE":33.0943,"ARG_OF_PERICENTER":225.7719,"MEAN_ANOMALY":134.3047,"EPHEMERIS_TYPE":0,"CLASSIFICATION_TYPE":"U","NORAD_CAT_ID":59668,"ELEMENT_SET_NO":999,"REV_AT_EPOCH":10449,"BSTAR":4.3681295e-5,"MEAN_MOTION_DOT":9.4e-6,"MEAN_MOTION_DDOT":0}]
